CTC1_L_00633001-01
1 50256U 23492EV  26070.40841435  .00000000  00000+0  00000-0 0  9991
2 50256  50.0000   0.0000 0000000   0.0000   0.0000  3.95927803    12
CTC1_L_00633001-02
1 50257U 23995JL  26070.40841435  .00000000  00000+0  00000-0 0  9990
2 50257  50.0000   0.0000 0000000   0.0000  36.0000  3.95927803    12
CTC1_L_00633001-03
1 50258U 25936WZ  26070.40841435  .00000000  00000+0  00000-0 0  9998
2 50258  50.0000   0.0000 0000000   0.0000  72.0000  3.95927803    13
CTC1_L_00633001-04
1 50259U 24947ZQ  26070.40841435  .00000000  00000+0  00000-0 0  9990
2 50259  50.0000   0.0000 0000000   0.0000 108.0000  3.95927803    14
CTC1_L_00633001-05
1 50260U 24117KD  26070.40841435  .00000000  00000+0  00000-0 0  9991
2 50260  50.0000   0.0000 0000000   0.0000 144.0000  3.95927803    16
CTC1_L_00633001-06
1 50261U 23927LK  26070.40841435  .00000000  00000+0  00000-0 0  9990
2 50261  50.0000   0.0000 0000000   0.0000 180.0000  3.95927803    17
CTC1_L_00633001-07
1 50262U 25284QM  26070.40841435  .00000000  00000+0  00000-0 0  9999
2 50262  50.0000   0.0000 0000000   0.0000 216.0000  3.95927803    18
CTC1_L_00633001-08
1 50263U 22817KY  26070.40841435  .00000000  00000+0  00000-0 0  9999
2 50263  50.0000   0.0000 0000000   0.0000 252.0000  3.95927803    19
CTC1_L_00633001-09
1 50264U 23614QD  26070.40841435  .00000000  00000+0  00000-0 0  9996
2 50264  50.0000   0.0000 0000000   0.0000 288.0000  3.95927803    19
CTC1_L_00633001-10
1 50265U 23250GR  26070.40841435  .00000000  00000+0  00000-0 0  9993
2 50265  50.0000   0.0000 0000000   0.0000 324.0000  3.95927803    11
CTC1_L_00633002-01
1 50266U 25331HH  26070.40841435  .00000000  00000+0  00000-0 0  9996
2 50266  50.0000  30.0000 0000000   0.0000  12.0000  3.95927803    19
CTC1_L_00633002-02
1 50267U 24045XA  26070.40841435  .00000000  00000+0  00000-0 0  9998
2 50267  50.0000  30.0000 0000000   0.0000  48.0000  3.95927803    19
CTC1_L_00633002-03
1 50268U 22144NY  26070.40841435  .00000000  00000+0  00000-0 0  9997
2 50268  50.0000  30.0000 0000000   0.0000  84.0000  3.95927803    10
CTC1_L_00633002-04
1 50269U 24113LX  26070.40841435  .00000000  00000+0  00000-0 0  9996
2 50269  50.0000  30.0000 0000000   0.0000 120.0000  3.95927803    12
CTC1_L_00633002-05
1 50270U 25068KD  26070.40841435  .00000000  00000+0  00000-0 0  9998
2 50270  50.0000  30.0000 0000000   0.0000 156.0000  3.95927803    13
CTC1_L_00633002-06
1 50271U 23237F   26070.40841435  .00000000  00000+0  00000-0 0  9995
2 50271  50.0000  30.0000 0000000   0.0000 192.0000  3.95927803    14
CTC1_L_00633002-07
1 50272U 22876WT  26070.40841435  .00000000  00000+0  00000-0 0  9994
2 50272  50.0000  30.0000 0000000   0.0000 228.0000  3.95927803    15
CTC1_L_00633002-08
1 50273U 26631TE  26070.40841435  .00000000  00000+0  00000-0 0  9998
2 50273  50.0000  30.0000 0000000   0.0000 264.0000  3.95927803    16
CTC1_L_00633002-09
1 50274U 24736FT  26070.40841435  .00000000  00000+0  00000-0 0  9993
2 50274  50.0000  30.0000 0000000   0.0000 300.0000  3.95927803    18
CTC1_L_00633002-10
1 50275U 22119FO  26070.40841435  .00000000  00000+0  00000-0 0  9997
2 50275  50.0000  30.0000 0000000   0.0000 336.0000  3.95927803    18
CTC1_L_00633003-01
1 50276U 22119GE  26070.40841435  .00000000  00000+0  00000-0 0  9998
2 50276  50.0000  60.0000 0000000   0.0000  24.0000  3.95927803    16
CTC1_L_00633003-02
1 50277U 26133IZ  26070.40841435  .00000000  00000+0  00000-0 0  9999
2 50277  50.0000  60.0000 0000000   0.0000  60.0000  3.95927803    17
CTC1_L_00633003-03
1 50278U 26022VT  26070.40841435  .00000000  00000+0  00000-0 0  9997
2 50278  50.0000  60.0000 0000000   0.0000  96.0000  3.95927803    17
CTC1_L_00633003-04
1 50279U 22402ST  26070.40841435  .00000000  00000+0  00000-0 0  9996
2 50279  50.0000  60.0000 0000000   0.0000 132.0000  3.95927803    19
CTC1_L_00633003-05
1 50280U 26157PD  26070.40841435  .00000000  00000+0  00000-0 0  9999
2 50280  50.0000  60.0000 0000000   0.0000 168.0000  3.95927803    10
CTC1_L_00633003-06
1 50281U 23836QL  26070.40841435  .00000000  00000+0  00000-0 0  9991
2 50281  50.0000  60.0000 0000000   0.0000 204.0000  3.95927803    12
CTC1_L_00633003-07
1 50282U 24244PH  26070.40841435  .00000000  00000+0  00000-0 0  9996
2 50282  50.0000  60.0000 0000000   0.0000 240.0000  3.95927803    13
CTC1_L_00633003-08
1 50283U 26773VZ  26070.40841435  .00000000  00000+0  00000-0 0  9996
2 50283  50.0000  60.0000 0000000   0.0000 276.0000  3.95927803    13
CTC1_L_00633003-09
1 50284U 22786UE  26070.40841435  .00000000  00000+0  00000-0 0  9997
2 50284  50.0000  60.0000 0000000   0.0000 312.0000  3.95927803    15
CTC1_L_00633003-10
1 50285U 22838XD  26070.40841435  .00000000  00000+0  00000-0 0  9996
2 50285  50.0000  60.0000 0000000   0.0000 348.0000  3.95927803    15
CTC1_L_00633004-01
1 50286U 23459SX  26070.40841435  .00000000  00000+0  00000-0 0  9997
2 50286  50.0000  90.0000 0000000   0.0000  36.0000  3.95927803    13
CTC1_L_00633004-02
1 50287U 23900CG  26070.40841435  .00000000  00000+0  00000-0 0  9999
2 50287  50.0000  90.0000 0000000   0.0000  72.0000  3.95927803    14
CTC1_L_00633004-03
1 50288U 24752XV  26070.40841435  .00000000  00000+0  00000-0 0  9996
2 50288  50.0000  90.0000 0000000   0.0000 108.0000  3.95927803    15
CTC1_L_00633004-04
1 50289U 26332EC  26070.40841435  .00000000  00000+0  00000-0 0  9993
2 50289  50.0000  90.0000 0000000   0.0000 144.0000  3.95927803    16
CTC1_L_00633004-05
1 50290U 25150WK  26070.40841435  .00000000  00000+0  00000-0 0  9992
2 50290  50.0000  90.0000 0000000   0.0000 180.0000  3.95927803    18
CTC1_L_00633004-06
1 50291U 22953SF  26070.40841435  .00000000  00000+0  00000-0 0  9991
2 50291  50.0000  90.0000 0000000   0.0000 216.0000  3.95927803    19
CTC1_L_00633004-07
1 50292U 23536ZO  26070.40841435  .00000000  00000+0  00000-0 0  9990
2 50292  50.0000  90.0000 0000000   0.0000 252.0000  3.95927803    10
CTC1_L_00633004-08
1 50293U 26917XG  26070.40841435  .00000000  00000+0  00000-0 0  9997
2 50293  50.0000  90.0000 0000000   0.0000 288.0000  3.95927803    10
CTC1_L_00633004-09
1 50294U 22231VU  26070.40841435  .00000000  00000+0  00000-0 0  9993
2 50294  50.0000  90.0000 0000000   0.0000 324.0000  3.95927803    12
CTC1_L_00633004-10
1 50295U 26173SO  26070.40841435  .00000000  00000+0  00000-0 0  9993
2 50295  50.0000  90.0000 0000000   0.0000   0.0000  3.95927803    14
CTC1_L_00633005-01
1 50296U 26552FR  26070.40841435  .00000000  00000+0  00000-0 0  9995
2 50296  50.0000 120.0000 0000000   0.0000  48.0000  3.95927803    11
CTC1_L_00633005-02
1 50297U 26067ZV  26070.40841435  .00000000  00000+0  00000-0 0  9997
2 50297  50.0000 120.0000 0000000   0.0000  84.0000  3.95927803    12
CTC1_L_00633005-03
1 50298U 26164KZ  26070.40841435  .00000000  00000+0  00000-0 0  9996
2 50298  50.0000 120.0000 0000000   0.0000 120.0000  3.95927803    14
CTC1_L_00633005-04
1 50299U 26483W   26070.40841435  .00000000  00000+0  00000-0 0  9991
2 50299  50.0000 120.0000 0000000   0.0000 156.0000  3.95927803    14
CTC1_L_00633005-05
1 50300U 24257BP  26070.40841435  .00000000  00000+0  00000-0 0  9991
2 50300  50.0000 120.0000 0000000   0.0000 192.0000  3.95927803    17
CTC1_L_00633005-06
1 50301U 26959DY  26070.40841435  .00000000  00000+0  00000-0 0  9993
2 50301  50.0000 120.0000 0000000   0.0000 228.0000  3.95927803    18
CTC1_L_00633005-07
1 50302U 25242VN  26070.40841435  .00000000  00000+0  00000-0 0  9998
2 50302  50.0000 120.0000 0000000   0.0000 264.0000  3.95927803    19
CTC1_L_00633005-08
1 50303U 22542CX  26070.40841435  .00000000  00000+0  00000-0 0  9999
2 50303  50.0000 120.0000 0000000   0.0000 300.0000  3.95927803    11
CTC1_L_00633005-09
1 50304U 24440TE  26070.40841435  .00000000  00000+0  00000-0 0  9999
2 50304  50.0000 120.0000 0000000   0.0000 336.0000  3.95927803    11
CTC1_L_00633005-10
1 50305U 22093CX  26070.40841435  .00000000  00000+0  00000-0 0  9992
2 50305  50.0000 120.0000 0000000   0.0000  12.0000  3.95927803    13
CTC1_L_00633006-01
1 50306U 24792ZG  26070.40841435  .00000000  00000+0  00000-0 0  9991
2 50306  50.0000 150.0000 0000000   0.0000  60.0000  3.95927803    10
CTC1_L_00633006-02
1 50307U 22914KX  26070.40841435  .00000000  00000+0  00000-0 0  9996
2 50307  50.0000 150.0000 0000000   0.0000  96.0000  3.95927803    10
CTC1_L_00633006-03
1 50308U 26636ET  26070.40841435  .00000000  00000+0  00000-0 0  9992
2 50308  50.0000 150.0000 0000000   0.0000 132.0000  3.95927803    12
CTC1_L_00633006-04
1 50309U 26717KZ  26070.40841435  .00000000  00000+0  00000-0 0  9993
2 50309  50.0000 150.0000 0000000   0.0000 168.0000  3.95927803    12
CTC1_L_00633006-05
1 50310U 23690IZ  26070.40841435  .00000000  00000+0  00000-0 0  9992
2 50310  50.0000 150.0000 0000000   0.0000 204.0000  3.95927803    15
CTC1_L_00633006-06
1 50311U 25420RN  26070.40841435  .00000000  00000+0  00000-0 0  9996
2 50311  50.0000 150.0000 0000000   0.0000 240.0000  3.95927803    16
CTC1_L_00633006-07
1 50312U 26923KO  26070.40841435  .00000000  00000+0  00000-0 0  9996
2 50312  50.0000 150.0000 0000000   0.0000 276.0000  3.95927803    16
CTC1_L_00633006-08
1 50313U 24224IL  26070.40841435  .00000000  00000+0  00000-0 0  9999
2 50313  50.0000 150.0000 0000000   0.0000 312.0000  3.95927803    18
CTC1_L_00633006-09
1 50314U 25129KW  26070.40841435  .00000000  00000+0  00000-0 0  9995
2 50314  50.0000 150.0000 0000000   0.0000 348.0000  3.95927803    18
CTC1_L_00633006-10
1 50315U 23889RV  26070.40841435  .00000000  00000+0  00000-0 0  9997
2 50315  50.0000 150.0000 0000000   0.0000  24.0000  3.95927803    10
CTC1_L_00633007-01
1 50316U 25738DZ  26070.40841435  .00000000  00000+0  00000-0 0  9993
2 50316  50.0000 180.0000 0000000   0.0000  72.0000  3.95927803    17
CTC1_L_00633007-02
1 50317U 24817FE  26070.40841435  .00000000  00000+0  00000-0 0  9991
2 50317  50.0000 180.0000 0000000   0.0000 108.0000  3.95927803    18
